[{"OBJECT_NAME":"STARLINK-32616","OBJECT_ID":"2024-207J","EPOCH":"2026-03-09T23:10:23.967552","MEAN_MOTION":15.27586336,"ECCENTRICITY":0.00023795,"INCLINATION":43.0046,"RA_OF_ASC_NODE":280.2373,"ARG_OF_PERICENTER":264.898,"MEAN_ANOMALY":95.16,"EPHEMERIS_TYPE":0,"CLASSIFICATION_TYPE":"U","NORAD_CAT_ID":61920,"ELEMENT_SET_NO":999,"REV_AT_EPOCH":7476,"BSTAR":0.001015076,"MEAN_MOTION_DOT":0.00027782,"MEAN_MOTION_DDOT":0},{"OBJECT_NAME":"OBJECT BD","OBJECT_ID":"2025-313BD","EPOCH":"2026-03-09T15:06:44.992224","MEAN_MOTION":15.3000236,"ECCENTRICITY":0.00072867,"INCLINATION":97.397,"RA_OF_ASC_NODE":145.285,"ARG_OF_PERICENTER":333.4514,"MEAN_ANOMALY":26.6352,"EPHEMERIS_TYPE":0,"CLASSIFICATION_TYPE":"U","NORAD_CAT_ID":67299,"ELEMENT_SET_NO":999,"REV_AT_EPOCH":1083,"BSTAR":0.0027633805,"MEAN_MOTION_DOT":0.0008101,"MEAN_MOTION_DDOT":0}]
